[{"OBJECT_NAME":"HXMT (HUIYAN)","OBJECT_ID":"2017-034A","EPOCH":"2026-04-18T06:21:07.079328","MEAN_MOTION":15.17945269,"ECCENTRICITY":0.00305705,"INCLINATION":43.013,"RA_OF_ASC_NODE":156.5636,"ARG_OF_PERICENTER":126.5364,"MEAN_ANOMALY":233.8306,"EPHEMERIS_TYPE":0,"CLASSIFICATION_TYPE":"U","NORAD_CAT_ID":42758,"ELEMENT_SET_NO":999,"REV_AT_EPOCH":48855,"BSTAR":0.00017367191,"MEAN_MOTION_DOT":3.388e-5,"MEAN_MOTION_DDOT":0},{"OBJECT_NAME":"SAOCOM 1A","OBJECT_ID":"2018-076A","EPOCH":"2026-04-18T07:43:13.767168","MEAN_MOTION":14.82145869,"ECCENTRICITY":0.00014642,"INCLINATION":97.8896,"RA_OF_ASC_NODE":295.9351,"ARG_OF_PERICENTER":91.4253,"MEAN_ANOMALY":268.7128,"EPHEMERIS_TYPE":0,"CLASSIFICATION_TYPE":"U","NORAD_CAT_ID":43641,"ELEMENT_SET_NO":999,"REV_AT_EPOCH":40723,"BSTAR":-4.1133267e-5,"MEAN_MOTION_DOT":-3.8e-6,"MEAN_MOTION_DDOT":0},{"OBJECT_NAME":"H-2A R/B","OBJECT_ID":"2018-084L","EPOCH":"2026-04-18T02:48:03.883104","MEAN_MOTION":15.429529,"ECCENTRICITY":0.00231022,"INCLINATION":98.8667,"RA_OF_ASC_NODE":333.9755,"ARG_OF_PERICENTER":244.5927,"MEAN_ANOMALY":115.2925,"EPHEMERIS_TYPE":0,"CLASSIFICATION_TYPE":"U","NORAD_CAT_ID":43682,"ELEMENT_SET_NO":999,"REV_AT_EPOCH":41185,"BSTAR":0.00027394871,"MEAN_MOTION_DOT":0.00012057,"MEAN_MOTION_DDOT":0},{"OBJECT_NAME":"SAOCOM 1B","OBJECT_ID":"2020-059A","EPOCH":"2026-04-18T06:50:59.143200","MEAN_MOTION":14.8216192,"ECCENTRICITY":0.00015002,"INCLINATION":97.8885,"RA_OF_ASC_NODE":294.9937,"ARG_OF_PERICENTER":85.0894,"MEAN_ANOMALY":275.049,"EPHEMERIS_TYPE":0,"CLASSIFICATION_TYPE":"U","NORAD_CAT_ID":46265,"ELEMENT_SET_NO":999,"REV_AT_EPOCH":30461,"BSTAR":6.9096359e-5,"MEAN_MOTION_DOT":4.98e-6,"MEAN_MOTION_DDOT":0},{"OBJECT_NAME":"CSS (TIANHE)","OBJECT_ID":"2021-035A","EPOCH":"2026-04-18T01:06:05.945760","MEAN_MOTION":15.62499605,"ECCENTRICITY":0.00061782,"INCLINATION":41.4679,"RA_OF_ASC_NODE":328.3459,"ARG_OF_PERICENTER":229.5609,"MEAN_ANOMALY":130.4692,"EPHEMERIS_TYPE":0,"CLASSIFICATION_TYPE":"U","NORAD_CAT_ID":48274,"ELEMENT_SET_NO":999,"REV_AT_EPOCH":28376,"BSTAR":0.0002235689,"MEAN_MOTION_DOT":0.00020203,"MEAN_MOTION_DDOT":0},{"OBJECT_NAME":"CZ-2C R/B","OBJECT_ID":"2022-058K","EPOCH":"2026-04-17T18:10:27.254496","MEAN_MOTION":15.57121443,"ECCENTRICITY":0.00400286,"INCLINATION":50.1857,"RA_OF_ASC_NODE":116.8688,"ARG_OF_PERICENTER":7.971,"MEAN_ANOMALY":352.1889,"EPHEMERIS_TYPE":0,"CLASSIFICATION_TYPE":"U","NORAD_CAT_ID":52794,"ELEMENT_SET_NO":999,"REV_AT_EPOCH":21621,"BSTAR":0.00038617964,"MEAN_MOTION_DOT":0.00029244,"MEAN_MOTION_DDOT":0},{"OBJECT_NAME":"CZ-2C R/B","OBJECT_ID":"2022-132E","EPOCH":"2026-04-17T23:35:10.229856","MEAN_MOTION":15.65515404,"ECCENTRICITY":0.0013253,"INCLINATION":97.2937,"RA_OF_ASC_NODE":112.6056,"ARG_OF_PERICENTER":308.063,"MEAN_ANOMALY":51.9433,"EPHEMERIS_TYPE":0,"CLASSIFICATION_TYPE":"U","NORAD_CAT_ID":54039,"ELEMENT_SET_NO":999,"REV_AT_EPOCH":19651,"BSTAR":0.00036837192,"MEAN_MOTION_DOT":0.00037011,"MEAN_MOTION_DDOT":0},{"OBJECT_NAME":"GSLV R/B","OBJECT_ID":"2022-138AN","EPOCH":"2026-04-18T03:53:37.142880","MEAN_MOTION":14.96998446,"ECCENTRICITY":0.00218477,"INCLINATION":87.3829,"RA_OF_ASC_NODE":153.1398,"ARG_OF_PERICENTER":15.2386,"MEAN_ANOMALY":344.9499,"EPHEMERIS_TYPE":0,"CLASSIFICATION_TYPE":"U","NORAD_CAT_ID":54149,"ELEMENT_SET_NO":999,"REV_AT_EPOCH":18983,"BSTAR":0.00011084958,"MEAN_MOTION_DOT":1.31e-5,"MEAN_MOTION_DDOT":0},{"OBJECT_NAME":"XRISM","OBJECT_ID":"2023-137A","EPOCH":"2026-04-18T04:34:43.862880","MEAN_MOTION":15.11932854,"ECCENTRICITY":0.00074917,"INCLINATION":31.0032,"RA_OF_ASC_NODE":28.0753,"ARG_OF_PERICENTER":77.1514,"MEAN_ANOMALY":282.9962,"EPHEMERIS_TYPE":0,"CLASSIFICATION_TYPE":"U","NORAD_CAT_ID":57800,"ELEMENT_SET_NO":999,"REV_AT_EPOCH":14377,"BSTAR":0.00020236227,"MEAN_MOTION_DOT":3.653e-5,"MEAN_MOTION_DDOT":0},{"OBJECT_NAME":"ACS3","OBJECT_ID":"2024-077B","EPOCH":"2026-04-17T17:07:32.117088","MEAN_MOTION":13.91508482,"ECCENTRICITY":0.00707881,"INCLINATION":97.1896,"RA_OF_ASC_NODE":40.0622,"ARG_OF_PERICENTER":356.1092,"MEAN_ANOMALY":3.9513,"EPHEMERIS_TYPE":0,"CLASSIFICATION_TYPE":"U","NORAD_CAT_ID":59588,"ELEMENT_SET_NO":999,"REV_AT_EPOCH":9962,"BSTAR":0.031781712,"MEAN_MOTION_DOT":0.00041237,"MEAN_MOTION_DDOT":0},{"OBJECT_NAME":"HTV-X1","OBJECT_ID":"2025-241A","EPOCH":"2026-04-18T02:26:59.254944","MEAN_MOTION":15.32678705,"ECCENTRICITY":0.00076097,"INCLINATION":51.6364,"RA_OF_ASC_NODE":243.0063,"ARG_OF_PERICENTER":325.5223,"MEAN_ANOMALY":34.5264,"EPHEMERIS_TYPE":0,"CLASSIFICATION_TYPE":"U","NORAD_CAT_ID":66174,"ELEMENT_SET_NO":999,"REV_AT_EPOCH":2698,"BSTAR":0.00019270038,"MEAN_MOTION_DOT":5.808e-5,"MEAN_MOTION_DDOT":0},{"OBJECT_NAME":"SZ-21 MODULE","OBJECT_ID":"2025-246C","EPOCH":"2026-04-17T23:59:17.409984","MEAN_MOTION":15.71618408,"ECCENTRICITY":0.00045046,"INCLINATION":41.474,"RA_OF_ASC_NODE":320.8041,"ARG_OF_PERICENTER":286.6997,"MEAN_ANOMALY":73.3351,"EPHEMERIS_TYPE":0,"CLASSIFICATION_TYPE":"U","NORAD_CAT_ID":66515,"ELEMENT_SET_NO":999,"REV_AT_EPOCH":2425,"BSTAR":0.00023455966,"MEAN_MOTION_DOT":0.00030878,"MEAN_MOTION_DDOT":0}]
