HXMT (HUIYAN)           
1 42758U 17034A   26108.26466527  .00003388  00000+0  17367-3 0  9994
2 42758  43.0130 156.5636 0030570 126.5364 233.8306 15.17945269488557
SAOCOM 1A               
1 43641U 18076A   26108.32168712 -.00000380  00000+0 -41133-4 0  9995
2 43641  97.8896 295.9351 0001464  91.4253 268.7128 14.82145869407238
H-2A R/B                
1 43682U 18084L   26108.11671161  .00012057  00000+0  27395-3 0  9998
2 43682  98.8667 333.9755 0023102 244.5927 115.2925 15.42952900411856
SAOCOM 1B               
1 46265U 20059A   26108.28540675  .00000498  00000+0  69096-4 0  9997
2 46265  97.8885 294.9937 0001500  85.0894 275.0490 14.82161920304618
CSS (TIANHE)            
1 48274U 21035A   26108.04590215  .00020203  00000+0  22357-3 0  9997
2 48274  41.4679 328.3459 0006178 229.5609 130.4692 15.62499605283765
CZ-2C R/B               
1 52794U 22058K   26107.75725989  .00029244  00000+0  38618-3 0  9991
2 52794  50.1857 116.8688 0040028   7.9710 352.1889 15.57121443216212
CZ-2C R/B               
1 54039U 22132E   26107.98275729  .00037011  00000+0  36837-3 0  9997
2 54039  97.2937 112.6056 0013253 308.0630  51.9433 15.65515404196518
GSLV R/B                
1 54149U 22138AN  26108.16223545  .00001310  00000+0  11085-3 0  9996
2 54149  87.3829 153.1398 0021847  15.2386 344.9499 14.96998446189830
XRISM                   
1 57800U 23137A   26108.19078545  .00003653  00000+0  20236-3 0  9994
2 57800  31.0032  28.0753 0007491  77.1514 282.9962 15.11932854143771
ACS3                    
1 59588U 24077B   26107.71356617  .00041237  00000+0  31782-1 0  9995
2 59588  97.1896  40.0622 0070788 356.1092   3.9513 13.91508482 99625
HTV-X1                  
1 66174U 25241A   26108.10207471  .00005808  00000+0  19270-3 0  9999
2 66174  51.6364 243.0063 0007609 325.5223  34.5264 15.32678705 26986
SZ-21 MODULE            
1 66515U 25246C   26107.99950706  .00030878  00000+0  23456-3 0  9991
2 66515  41.4740 320.8041 0004504 286.6997  73.3351 15.71618408 24259
